CCSDS_OMM_VERS = 2.0
CREATION_DATE  = 
ORIGINATOR     = 

OBJECT_NAME    = STARLINK-36259
OBJECT_ID      = 2025-299E
CENTER_NAME    = EARTH
REF_FRAME      = TEME
TIME_SYSTEM    = UTC
MEAN_ELEMENT_THEORY = SGP/SGP4

EPOCH          = 2025-12-31T04:00:01.998720
MEAN_MOTION    = 15.59596777
ECCENTRICITY   = .0001622
INCLINATION    = 42.9990
RA_OF_ASC_NODE = 204.2582
ARG_OF_PERICENTER = 260.5693
MEAN_ANOMALY   = 3.1577

EPHEMERIS_TYPE = 0
CLASSIFICATION_TYPE = U
NORAD_CAT_ID   = 67106
ELEMENT_SET_NO = 999
REV_AT_EPOCH   = 377
BSTAR          = -.27032E-1
MEAN_MOTION_DOT = -.1947942E-1
MEAN_MOTION_DDOT = 0

CCSDS_OMM_VERS = 2.0
CREATION_DATE  = 
ORIGINATOR     = 

OBJECT_NAME    = STARLINK-36196
OBJECT_ID      = 2025-299F
CENTER_NAME    = EARTH
REF_FRAME      = TEME
TIME_SYSTEM    = UTC
MEAN_ELEMENT_THEORY = SGP/SGP4

EPOCH          = 2025-12-31T04:00:01.998720
MEAN_MOTION    = 15.59600340
ECCENTRICITY   = .0001582
INCLINATION    = 42.9991
RA_OF_ASC_NODE = 204.2632
ARG_OF_PERICENTER = 261.6882
MEAN_ANOMALY   = 0.1678

EPHEMERIS_TYPE = 0
CLASSIFICATION_TYPE = U
NORAD_CAT_ID   = 67107
ELEMENT_SET_NO = 999
REV_AT_EPOCH   = 377
BSTAR          = -.27212E-1
MEAN_MOTION_DOT = -.1959563E-1
MEAN_MOTION_DDOT = 0

CCSDS_OMM_VERS = 2.0
CREATION_DATE  = 
ORIGINATOR     = 

OBJECT_NAME    = STARLINK-36208
OBJECT_ID      = 2025-299G
CENTER_NAME    = EARTH
REF_FRAME      = TEME
TIME_SYSTEM    = UTC
MEAN_ELEMENT_THEORY = SGP/SGP4

EPOCH          = 2025-12-31T04:00:01.998720
MEAN_MOTION    = 15.59609347
ECCENTRICITY   = .0001639
INCLINATION    = 42.9990
RA_OF_ASC_NODE = 204.2533
ARG_OF_PERICENTER = 260.7232
MEAN_ANOMALY   = 4.8629

EPHEMERIS_TYPE = 0
CLASSIFICATION_TYPE = U
NORAD_CAT_ID   = 67108
ELEMENT_SET_NO = 999
REV_AT_EPOCH   = 377
BSTAR          = -.27131E-1
MEAN_MOTION_DOT = -.1955082E-1
MEAN_MOTION_DDOT = 0

CCSDS_OMM_VERS = 2.0
CREATION_DATE  = 
ORIGINATOR     = 

OBJECT_NAME    = STARLINK-35764
OBJECT_ID      = 2025-299H
CENTER_NAME    = EARTH
REF_FRAME      = TEME
TIME_SYSTEM    = UTC
MEAN_ELEMENT_THEORY = SGP/SGP4

EPOCH          = 2025-12-31T04:00:01.998720
MEAN_MOTION    = 15.59609083
ECCENTRICITY   = .0001656
INCLINATION    = 42.9990
RA_OF_ASC_NODE = 204.2488
ARG_OF_PERICENTER = 259.4392
MEAN_ANOMALY   = 8.0456

EPHEMERIS_TYPE = 0
CLASSIFICATION_TYPE = U
NORAD_CAT_ID   = 67109
ELEMENT_SET_NO = 999
REV_AT_EPOCH   = 366
BSTAR          = -.27064E-1
MEAN_MOTION_DOT = -.1950816E-1
MEAN_MOTION_DDOT = 0

CCSDS_OMM_VERS = 2.0
CREATION_DATE  = 
ORIGINATOR     = 

OBJECT_NAME    = STARLINK-35781
OBJECT_ID      = 2025-299J
CENTER_NAME    = EARTH
REF_FRAME      = TEME
TIME_SYSTEM    = UTC
MEAN_ELEMENT_THEORY = SGP/SGP4

EPOCH          = 2025-12-31T04:00:01.998720
MEAN_MOTION    = 15.59616698
ECCENTRICITY   = .0001657
INCLINATION    = 42.9992
RA_OF_ASC_NODE = 204.2390
ARG_OF_PERICENTER = 264.3161
MEAN_ANOMALY   = 6.9299

EPHEMERIS_TYPE = 0
CLASSIFICATION_TYPE = U
NORAD_CAT_ID   = 67110
ELEMENT_SET_NO = 999
REV_AT_EPOCH   = 372
BSTAR          = -.26987E-1
MEAN_MOTION_DOT = -.19464E-1
MEAN_MOTION_DDOT = 0

CCSDS_OMM_VERS = 2.0
CREATION_DATE  = 
ORIGINATOR     = 

OBJECT_NAME    = STARLINK-35875
OBJECT_ID      = 2025-299K
CENTER_NAME    = EARTH
REF_FRAME      = TEME
TIME_SYSTEM    = UTC
MEAN_ELEMENT_THEORY = SGP/SGP4

EPOCH          = 2025-12-31T04:00:01.998720
MEAN_MOTION    = 15.59610844
ECCENTRICITY   = .0001609
INCLINATION    = 42.9992
RA_OF_ASC_NODE = 204.2443
ARG_OF_PERICENTER = 256.8291
MEAN_ANOMALY   = 12.5516

EPHEMERIS_TYPE = 0
CLASSIFICATION_TYPE = U
NORAD_CAT_ID   = 67111
ELEMENT_SET_NO = 999
REV_AT_EPOCH   = 366
BSTAR          = -.2704E-1
MEAN_MOTION_DOT = -.1949381E-1
MEAN_MOTION_DDOT = 0

CCSDS_OMM_VERS = 2.0
CREATION_DATE  = 
ORIGINATOR     = 

OBJECT_NAME    = STARLINK-35906
OBJECT_ID      = 2025-299L
CENTER_NAME    = EARTH
REF_FRAME      = TEME
TIME_SYSTEM    = UTC
MEAN_ELEMENT_THEORY = SGP/SGP4

EPOCH          = 2025-12-31T04:00:01.998720
MEAN_MOTION    = 15.59633491
ECCENTRICITY   = .0001691
INCLINATION    = 42.9988
RA_OF_ASC_NODE = 204.2352
ARG_OF_PERICENTER = 263.8003
MEAN_ANOMALY   = 9.2434

EPHEMERIS_TYPE = 0
CLASSIFICATION_TYPE = U
NORAD_CAT_ID   = 67112
ELEMENT_SET_NO = 999
REV_AT_EPOCH   = 366
BSTAR          = -.26997E-1
MEAN_MOTION_DOT = -.1948202E-1
MEAN_MOTION_DDOT = 0

CCSDS_OMM_VERS = 2.0
CREATION_DATE  = 
ORIGINATOR     = 

OBJECT_NAME    = STARLINK-35789
OBJECT_ID      = 2025-299M
CENTER_NAME    = EARTH
REF_FRAME      = TEME
TIME_SYSTEM    = UTC
MEAN_ELEMENT_THEORY = SGP/SGP4

EPOCH          = 2025-12-31T04:00:01.998720
MEAN_MOTION    = 15.59647016
ECCENTRICITY   = .0001647
INCLINATION    = 42.9990
RA_OF_ASC_NODE = 204.2303
ARG_OF_PERICENTER = 260.8979
MEAN_ANOMALY   = 13.9690

EPHEMERIS_TYPE = 0
CLASSIFICATION_TYPE = U
NORAD_CAT_ID   = 67113
ELEMENT_SET_NO = 999
REV_AT_EPOCH   = 366
BSTAR          = -.27003E-1
MEAN_MOTION_DOT = -.1949465E-1
MEAN_MOTION_DDOT = 0

CCSDS_OMM_VERS = 2.0
CREATION_DATE  = 
ORIGINATOR     = 

OBJECT_NAME    = STARLINK-36180
OBJECT_ID      = 2025-299N
CENTER_NAME    = EARTH
REF_FRAME      = TEME
TIME_SYSTEM    = UTC
MEAN_ELEMENT_THEORY = SGP/SGP4

EPOCH          = 2025-12-31T04:00:01.998720
MEAN_MOTION    = 15.59647429
ECCENTRICITY   = .000163
INCLINATION    = 42.9990
RA_OF_ASC_NODE = 204.2258
ARG_OF_PERICENTER = 261.4089
MEAN_ANOMALY   = 15.3505

EPHEMERIS_TYPE = 0
CLASSIFICATION_TYPE = U
NORAD_CAT_ID   = 67114
ELEMENT_SET_NO = 999
REV_AT_EPOCH   = 377
BSTAR          = -.26934E-1
MEAN_MOTION_DOT = -.1945107E-1
MEAN_MOTION_DDOT = 0

CCSDS_OMM_VERS = 2.0
CREATION_DATE  = 
ORIGINATOR     = 

OBJECT_NAME    = STARLINK-35892
OBJECT_ID      = 2025-299P
CENTER_NAME    = EARTH
REF_FRAME      = TEME
TIME_SYSTEM    = UTC
MEAN_ELEMENT_THEORY = SGP/SGP4

EPOCH          = 2025-12-31T04:00:01.998720
MEAN_MOTION    = 15.59658367
ECCENTRICITY   = .0001761
INCLINATION    = 42.9995
RA_OF_ASC_NODE = 204.2212
ARG_OF_PERICENTER = 264.3498
MEAN_ANOMALY   = 14.2425

EPHEMERIS_TYPE = 0
CLASSIFICATION_TYPE = U
NORAD_CAT_ID   = 67115
ELEMENT_SET_NO = 999
REV_AT_EPOCH   = 366
BSTAR          = -.26968E-1
MEAN_MOTION_DOT = -.1948073E-1
MEAN_MOTION_DDOT = 0

CCSDS_OMM_VERS = 2.0
CREATION_DATE  = 
ORIGINATOR     = 

OBJECT_NAME    = STARLINK-35738
OBJECT_ID      = 2025-299Q
CENTER_NAME    = EARTH
REF_FRAME      = TEME
TIME_SYSTEM    = UTC
MEAN_ELEMENT_THEORY = SGP/SGP4

EPOCH          = 2025-12-31T04:00:01.998720
MEAN_MOTION    = 15.59662512
ECCENTRICITY   = .0001716
INCLINATION    = 42.9992
RA_OF_ASC_NODE = 204.2160
ARG_OF_PERICENTER = 261.7114
MEAN_ANOMALY   = 18.7861

EPHEMERIS_TYPE = 0
CLASSIFICATION_TYPE = U
NORAD_CAT_ID   = 67116
ELEMENT_SET_NO = 999
REV_AT_EPOCH   = 366
BSTAR          = -.27015E-1
MEAN_MOTION_DOT = -.1951271E-1
MEAN_MOTION_DDOT = 0

CCSDS_OMM_VERS = 2.0
CREATION_DATE  = 
ORIGINATOR     = 

OBJECT_NAME    = STARLINK-35674
OBJECT_ID      = 2025-299R
CENTER_NAME    = EARTH
REF_FRAME      = TEME
TIME_SYSTEM    = UTC
MEAN_ELEMENT_THEORY = SGP/SGP4

EPOCH          = 2025-12-31T04:00:01.998720
MEAN_MOTION    = 15.59670632
ECCENTRICITY   = .0001623
INCLINATION    = 42.9993
RA_OF_ASC_NODE = 204.2121
ARG_OF_PERICENTER = 264.1748
MEAN_ANOMALY   = 18.1794

EPHEMERIS_TYPE = 0
CLASSIFICATION_TYPE = U
NORAD_CAT_ID   = 67117
ELEMENT_SET_NO = 999
REV_AT_EPOCH   = 356
BSTAR          = -.26984E-1
MEAN_MOTION_DOT = -.1949753E-1
MEAN_MOTION_DDOT = 0

