STARLINK-36259          
1 67106U 25299E   25365.16668980 -.01947942  00000+0 -27032-1 0  9994
2 67106  42.9990 204.2582 0001622 260.5693   3.1577 15.59596777  3771
STARLINK-36196          
1 67107U 25299F   25365.16668980 -.01959563  00000+0 -27212-1 0  9997
2 67107  42.9991 204.2632 0001582 261.6882   0.1678 15.59600340  3777
STARLINK-36208          
1 67108U 25299G   25365.16668980 -.01955082  00000+0 -27131-1 0  9990
2 67108  42.9990 204.2533 0001639 260.7232   4.8629 15.59609347  3772
STARLINK-35764          
1 67109U 25299H   25365.16668980 -.01950816  00000+0 -27064-1 0  9996
2 67109  42.9990 204.2488 0001656 259.4392   8.0456 15.59609083  3662
STARLINK-35781          
1 67110U 25299J   25365.16668980 -.01946400  00000+0 -26987-1 0  9995
2 67110  42.9992 204.2390 0001657 264.3161   6.9299 15.59616698  3727
STARLINK-35875          
1 67111U 25299K   25365.16668980 -.01949381  00000+0 -27040-1 0  9998
2 67111  42.9992 204.2443 0001609 256.8291  12.5516 15.59610844  3669
STARLINK-35906          
1 67112U 25299L   25365.16668980 -.01948202  00000+0 -26997-1 0  9990
2 67112  42.9988 204.2352 0001691 263.8003   9.2434 15.59633491  3669
STARLINK-35789          
1 67113U 25299M   25365.16668980 -.01949465  00000+0 -27003-1 0  9992
2 67113  42.9990 204.2303 0001647 260.8979  13.9690 15.59647016  3663
STARLINK-36180          
1 67114U 25299N   25365.16668980 -.01945107  00000+0 -26934-1 0  9994
2 67114  42.9990 204.2258 0001630 261.4089  15.3505 15.59647429  3775
STARLINK-35892          
1 67115U 25299P   25365.16668980 -.01948073  00000+0 -26968-1 0  9997
2 67115  42.9995 204.2212 0001761 264.3498  14.2425 15.59658367  3662
STARLINK-35738          
1 67116U 25299Q   25365.16668980 -.01951271  00000+0 -27015-1 0  9996
2 67116  42.9992 204.2160 0001716 261.7114  18.7861 15.59662512  3668
STARLINK-35674          
1 67117U 25299R   25365.16668980 -.01949753  00000+0 -26984-1 0  9993
2 67117  42.9993 204.2121 0001623 264.1748  18.1794 15.59670632  3564
